COSMOS 2251 DEB         
1 40239U 93036BVU 17344.92872865  .00000164  00000-0  43356-4 0  9991
2 40239  74.0355  62.0011 0097056 189.1868 288.4468 14.54194662170552
